[ {"name": "STARLINK-36652", "line1": "1 67839U 26033U   26117.01355748  .00025500  00000+0  93264-3 0  9995", "line2": "2 67839  43.0025 354.2199 0000954 271.9924  88.0818 15.27592148 12060"}, {"name": "STARLINK-36651", "line1": "1 67840U 26033V   26117.00970007  .00019236  00000+0  70654-3 0  9994", "line2": "2 67840  43.0008 354.1873 0001239 260.4329  99.6382 15.27588710 12064"}, {"name": "STARLINK-36656", "line1": "1 67841U 26033W   26117.83336806 -.00007592  00000+0 -26670-3 0  9992", "line2": "2 67841  43.0011 349.4524 0001560 264.9539 345.3435 15.27573027  5650"}, {"name": "STARLINK-36653", "line1": "1 67842U 26033X   26116.99942194  .00016809  00000+0  61871-3 0  9993", "line2": "2 67842  43.0031 354.1104 0001671 278.3103  81.7559 15.27593078 12068"}, {"name": "STARLINK-36589", "line1": "1 67843U 26033Y   26116.07629561  .00026416  00000+0  96517-3 0  9993", "line2": "2 67843  43.0044 359.2205 0001939 267.6727  92.3903 15.27608430 11925"}, {"name": "STARLINK-36598", "line1": "1 67844U 26033Z   26117.36362966  .00022098  00000+0  81040-3 0  9997", "line2": "2 67844  42.9970 352.5548 0000982  59.5657 300.5291 15.27569848 12110"}, {"name": "STARLINK-36606", "line1": "1 67845U 26033AA  26117.05452450  .00023510  00000+0  86077-3 0  9997", "line2": "2 67845  43.0037 353.6551 0002027 260.1547  99.9076 15.27593773 12072"}, {"name": "STARLINK-36658", "line1": "1 67846U 26033AB  26117.35591716  .00037105  00000+0  13509-2 0  9994", "line2": "2 67846  43.0034 352.4919 0001101  38.9120 321.1811 15.27585709 12117"}, {"name": "STARLINK-36618", "line1": "1 67847U 26033AC  26117.83336806 -.01072935  00000+0 -35853-1 0  9993", "line2": "2 67847  43.0000 335.2534 0001727 276.5996 342.7284 15.33078217  5942"}, {"name": "STARLINK-36660", "line1": "1 67848U 26033AD  26117.02640634  .00023021  00000+0  84340-3 0  9998", "line2": "2 67848  43.0021 354.3176 0001460 285.7404  74.3287 15.27582683 12062"}, {"name": "STARLINK-36602", "line1": "1 67849U 26033AE  26117.36748863  .00010386  00000+0  38683-3 0  9998", "line2": "2 67849  43.0028 352.5783 0000381 305.6370  54.4446 15.27544947 12112"}, {"name": "STARLINK-36840", "line1": "1 67850U 26034A   26117.82989414 -.00130753  00000+0 -44521-2 0  9991", "line2": "2 67850  53.1583 335.7041 0007659 354.6566   5.4352 15.30366108 11563"}, {"name": "STARLINK-36348", "line1": "1 67851U 26034B   26117.88265291  .00022549  00000+0  77120-3 0  9991", "line2": "2 67851  53.1587 336.0393 0000905  90.8469 269.2635 15.30196617 11560"}, {"name": "STARLINK-36276", "line1": "1 67852U 26034C   26117.87948706  .00022969  00000+0  78528-3 0  9999", "line2": "2 67852  53.1599 336.0223 0000978  98.1110 262.0002 15.30198659 11567"}, {"name": "STARLINK-36785", "line1": "1 67853U 26034D   26117.79200965  .00019227  00000+0  65907-3 0  9999", "line2": "2 67853  53.1612 336.1559 0001726  97.7104 262.4093 15.30226033 11558"}, {"name": "STARLINK-36608", "line1": "1 67854U 26034E   26117.84360295  .00022517  00000+0  77001-3 0  9993", "line2": "2 67854  53.1587 335.7674 0000971  91.1859 268.9253 15.30202085 11559"}, {"name": "STARLINK-36838", "line1": "1 67855U 26034F   26117.84043654  .00024745  00000+0  84473-3 0  9997", "line2": "2 67855  53.1586 335.7486 0001004  95.1375 264.9740 15.30203282 11563"}, {"name": "STARLINK-36843", "line1": "1 67856U 26034G   26117.83094132  .00033279  00000+0  11305-2 0  9999", "line2": "2 67856  53.1581 335.7055 0000949  88.1870 271.9239 15.30205729 11569"}, {"name": "STARLINK-36828", "line1": "1 67857U 26034H   26117.83410266  .00024353  00000+0  83136-3 0  9995", "line2": "2 67857  53.1587 335.7023 0001321 124.5718 235.5408 15.30211478 11564"}, {"name": "STARLINK-36837", "line1": "1 67858U 26034J   26117.83336806  .00011119  00000+0  26470-3 0  9997", "line2": "2 67858  53.1603 335.4032 0000785  69.4210  92.1289 15.42147454  5919"}, {"name": "STARLINK-36393", "line1": "1 67859U 26034K   26117.88992186  .00032307  00000+0  10983-2 0  9995", "line2": "2 67859  53.1590 335.3397 0001060  84.8974 275.2147 15.30197439 11574"}, {"name": "STARLINK-35873", "line1": "1 67860U 26034L   26117.88476002  .00020630  00000+0  70686-3 0  9994", "line2": "2 67860  53.1590 336.0273 0001058  88.4129 271.6992 15.30193279 11594"}, {"name": "STARLINK-36325", "line1": "1 67861U 26034M   26117.88159433  .00021848  00000+0  74751-3 0  9990", "line2": "2 67861  53.1592 336.0078 0001001  56.2420 303.8676 15.30203847 11562"}, {"name": "STARLINK-36332", "line1": "1 67862U 26034N   26117.74779501  .00024762  00000+0  84511-3 0  9993", "line2": "2 67862  53.1590 336.5838 0002240 139.7320 220.3847 15.30210484 11548"}, {"name": "STARLINK-36835", "line1": "1 67863U 26034P   26117.80994613  .00021865  00000+0  74803-3 0  9998", "line2": "2 67863  53.1597 336.2687 0001556 137.4863 222.6259 15.30206052 11550"}, {"name": "STARLINK-36831", "line1": "1 67864U 26034Q   26117.87209648  .00024479  00000+0  83585-3 0  9994", "line2": "2 67864  53.1606 335.9453 0001050  85.4382 274.6739 15.30202045 11565"}, {"name": "STARLINK-36738", "line1": "1 67865U 26034R   26117.86576554  .00024687  00000+0  84265-3 0  9994", "line2": "2 67865  53.1621 335.9030 0001683  94.3580 265.7613 15.30208020 11566"}, {"name": "STARLINK-36780", "line1": "1 67866U 26034S   26117.86259904  .00022210  00000+0  75961-3 0  9995", "line2": "2 67866  53.1621 335.8809 0001727 101.0421 259.0774 15.30206652 11562"}, {"name": "STARLINK-36761", "line1": "1 67867U 26034T   26117.85943106  .00024135  00000+0  82425-3 0  9990", "line2": "2 67867  53.1628 335.8607 0001167 104.0239 256.0892 15.30204323 11565"}, {"name": "STARLINK-36762", "line1": "1 67868U 26034U   26117.85523426  .00025883  00000+0  88321-3 0  9992", "line2": "2 67868  53.1600 335.8387 0000910  76.1150 283.9952 15.30191214 11567"}, {"name": "STARLINK-36779", "line1": "1 67869U 26034V   26117.81318067  .00056246  00000+0  12923-2 0  9993", "line2": "2 67869  53.1600 335.5777 0001107  86.1593 273.9539 15.42164336 11556"}, {"name": "STARLINK-36770", "line1": "1 67870U 26034W   26117.84782434  .00021504  00000+0  73606-3 0  9996", "line2": "2 67870  53.1593 335.7918 0000959  89.8994 270.2117 15.30200503 11564"}, {"name": "STARLINK-36769", "line1": "1 67871U 26034X   26117.84571216  .00025271  00000+0  86232-3 0  9995", "line2": "2 67871  53.1590 335.7740 0001025  91.7488 268.3630 15.30204807 11569"}, {"name": "STARLINK-36786", "line1": "1 67872U 26034Y   26117.83937978  .00017969  00000+0  61735-3 0  9992", "line2": "2 67872  53.1566 335.7394 0000811 103.2918 256.8173 15.30199336 11561"}, {"name": "STARLINK-36783", "line1": "1 67873U 26034Z   26117.83336806  .00007474  00000+0  18109-3 0  9993", "line2": "2 67873  53.1599 335.4714 0000982  88.6331  28.3294 15.42148195  5812"}, {"name": "STARLINK-36730", "line1": "1 67874U 26034AA  26117.83336806  .00008884  00000+0  21346-3 0  9997", "line2": "2 67874  53.1602 335.4053 0001047  97.5346  52.8250 15.42146175  5878"}, {"name": "STARLINK-36727", "line1": "1 67875U 26034AB  26117.82671784  .00017031  00000+0  58583-3 0  9991", "line2": "2 67875  53.1589 335.6560 0000960  92.8217 267.2893 15.30200261 11568"}, {"name": "STARLINK-36743", "line1": "1 67876U 26034AC  26117.88053774  .00027556  00000+0  93902-3 0  9998", "line2": "2 67876  53.1594 335.9956 0001050  87.8528 272.2593 15.30201737 11569"}, {"name": "STARLINK-36784", "line1": "1 67877U 26034AD  26117.88074965  .00029137  00000+0  10181-2 0  9998", "line2": "2 67877  53.1612 336.0154 0001263  80.4228 279.6915 15.29355527 11569"}, {"name": "STARLINK-36689", "line1": "1 67878U 26034AE  26117.87104149  .00021025  00000+0  71984-3 0  9993", "line2": "2 67878  53.1612 335.9331 0001819  95.0176 265.1033 15.30205853 11565"}, {"name": "STARLINK-36818", "line1": "1 67879U 26035A   26117.82272435  .00041839  00000+0  12908-2 0  9999", "line2": "2 67879  97.2843  51.6673 0001665  87.5613 272.5820 15.33451676 11513"}, {"name": "STARLINK-36821", "line1": "1 67880U 26035B   26117.82000446  .00035990  00000+0  11114-2 0  9991", "line2": "2 67880  97.2848  51.6704 0002277  94.2786 265.8717 15.33456957 11518"}, {"name": "STARLINK-36808", "line1": "1 67881U 26035C   26117.77650086  .00032293  00000+0  99820-3 0  9991", "line2": "2 67881  97.2862  51.7310 0001767  92.4553 267.6892 15.33448388 11517"}, {"name": "STARLINK-36817", "line1": "1 67882U 26035D   26117.79553280  .00017546  00000+0  54456-3 0  9992", "line2": "2 67882  97.2856  51.7046 0001768  90.3584 269.7861 15.33443287 11511"}, {"name": "STARLINK-36856", "line1": "1 67883U 26035E   26117.79825154  .00039847  00000+0  12298-2 0  9990", "line2": "2 67883  97.2853  51.7006 0001639  97.6839 262.4590 15.33452014 11512"}, {"name": "STARLINK-36842", "line1": "1 67884U 26035F   26117.81728578  .00040343  00000+0  12451-2 0  9990", "line2": "2 67884  97.2841  51.6748 0001662  86.3402 273.8031 15.33450306 11517"}, {"name": "STARLINK-36826", "line1": "1 67885U 26035G   26117.80921122  .00035723  00000+0  10749-2 0  9994", "line2": "2 67885  97.2849  51.6838 0001499  90.8360 269.3055 15.34282768 11519"}, {"name": "STARLINK-36390", "line1": "1 67886U 26035H   26117.81456675  .00038470  00000+0  11878-2 0  9998", "line2": "2 67886  97.2853  51.6781 0001796  96.5256 263.6192 15.33448254 11511"}, {"name": "STARLINK-36368", "line1": "1 67887U 26035J   26117.78466113  .00029877  00000+0  92447-3 0  9996", "line2": "2 67887  97.2859  51.7153 0002189  91.1940 268.9553 15.33431453 11512"}, {"name": "STARLINK-36801", "line1": "1 67888U 26035K   26117.78737641  .00038467  00000+0  11873-2 0  9992", "line2": "2 67888  97.2859  51.7149 0001666  88.0443 272.0990 15.33457111 11510"}, {"name": "STARLINK-36372", "line1": "1 67889U 26035L   26117.79281448  .00042326  00000+0  13054-2 0  9995", "line2": "2 67889  97.2846  51.7082 0001900  89.6520 270.4940 15.33459985 11515"}, {"name": "STARLINK-36363", "line1": "1 67890U 26035M   26117.80912992  .00026593  00000+0  82307-3 0  9990", "line2": "2 67890  97.2854  51.6861 0002284  84.4030 275.7473 15.33446116 11516"}]